OBJECT_NAME,OBJECT_ID,EPOCH,MEAN_MOTION,ECCENTRICITY,INCLINATION,RA_OF_ASC_NODE,ARG_OF_PERICENTER,MEAN_ANOMALY,EPHEMERIS_TYPE,CLASSIFICATION_TYPE,NORAD_CAT_ID,ELEMENT_SET_NO,REV_AT_EPOCH,BSTAR,MEAN_MOTION_DOT,MEAN_MOTION_DDOT
BEIDOU-2 G8 (C01),2019-027A,2026-06-19T22:07:08.844960,1.00269962,.00101394,1.6661,74.5058,282.0922,27.8583,0,U,44231,999,2610,0,-.253E-5,0
COSMOS 2534 (758),2019-030A,2026-06-19T14:06:28.099872,2.13102291,.00134837,64.3684,192.5358,275.0708,265.7361,0,U,44299,999,5497,0,.58E-6,0
BEIDOU-3 IGSO-2 (C39),2019-035A,2026-06-18T21:16:55.972416,1.00265889,.00396642,55.2463,158.8478,216.5160,330.6306,0,U,44337,999,2568,0,-.97E-6,0
GPS BIII-2  (PRN 18),2019-056A,2026-06-19T21:07:19.603200,2.00569711,.00621448,55.6357,331.0347,197.6254,334.2547,0,U,44506,999,5012,0,-.92E-6,0
BEIDOU-3 M24 (C46),2019-061A,2026-06-18T20:28:45.292800,1.86229057,.00083489,54.3963,182.6715,358.6027,1.4189,0,U,44542,999,4582,0,.56E-6,0
BEIDOU-3 M23 (C45),2019-061B,2026-06-19T18:50:17.001600,1.86227424,.0005753,54.3947,182.6082,337.7504,198.4521,0,U,44543,999,4584,0,.62E-6,0
EUTELSAT 5 WEST B (EGNOS/PRN 121),2019-067A,2026-06-19T20:28:38.572608,1.00270055,.00030827,0.0624,351.1019,97.4901,121.6554,0,U,44624,999,2446,0,-.48E-6,0
BEIDOU-3 M22 (C44),2019-078A,2026-06-19T18:24:36.955296,1.86227050,.00062942,53.9333,299.7372,50.9826,309.0706,0,U,44793,999,4469,0,-.86E-6,0
BEIDOU-3 M21 (C43),2019-078B,2026-06-18T07:06:24.552864,1.86227678,.0004064,53.9076,299.7502,49.2520,310.7784,0,U,44794,999,4467,0,-.76E-6,0
COSMOS 2544 (759),2019-088A,2026-06-18T10:29:30.688800,2.13102753,.00131277,65.5663,73.6893,258.8621,101.0278,0,U,44850,999,5074,0,-.23E-6,0
BEIDOU-3 M19 (C41),2019-090A,2026-06-19T07:51:12.847392,1.86231227,.00178079,56.5606,62.7196,298.1010,230.5750,0,U,44864,999,4427,0,-.63E-6,0
BEIDOU-3 M20 (C42),2019-090B,2026-06-18T16:12:23.971680,1.86231125,.00156151,56.5620,62.7761,312.2190,228.9431,0,U,44865,999,4424,0,-.58E-6,0
BEIDOU-3 G2 (C60),2020-017A,2026-06-19T21:58:31.441152,1.00271664,.00020712,2.8704,47.4085,33.6369,236.7997,0,U,45344,999,2328,0,-.147E-5,0
COSMOS 2545 (760),2020-018A,2026-06-16T06:51:36.735840,2.13102431,.0008397,64.3556,312.4510,230.0424,129.8687,0,U,45358,999,4864,0,-.55E-6,0
BEIDOU-3 G3 (C61),2020-040A,2026-06-19T21:57:24.778368,1.00264999,.00023717,2.4549,67.4595,337.2496,303.2164,0,U,45807,999,2209,0,-.359E-5,0
GPS BIII-3  (PRN 23),2020-041A,2026-06-19T17:21:46.956096,2.00558579,.00640019,56.6713,28.8441,204.6185,152.4669,0,U,45854,999,4408,0,-.92E-6,0
GALAXY 30 (WAAS/PRN 135),2020-056C,2026-06-19T17:24:54.157248,1.00272867,.00022535,0.0178,13.9580,74.1097,316.0992,0,U,46114,999,2131,0,.31E-6,0
COSMOS 2547 (705K),2020-075A,2026-06-19T06:58:58.433376,2.13100021,.00093332,64.5997,192.4053,239.7748,120.1782,0,U,46805,999,4395,0,.57E-6,0
GPS BIII-4  (PRN 14),2020-078A,2026-06-19T19:38:18.413088,2.00564906,.00736148,53.9793,210.6716,207.3321,194.6369,0,U,46826,999,4156,0,.26E-6,0
GPS BIII-5  (PRN 11),2021-054A,2026-06-16T22:59:18.041280,2.00568788,.0025342,55.1744,332.4683,228.5531,94.2622,0,U,48859,999,3674,0,-.87E-6,0
QZS-1R (QZSS/PRN 196),2021-096A,2026-06-19T15:10:55.566912,1.00254705,.07548004,37.4674,79.5460,271.8525,278.0167,0,U,49336,999,1703,0,-.29E-5,0
GSAT0223 (GALILEO 27),2021-116A,2026-06-19T09:00:33.961248,1.70475883,.00015499,57.1602,341.6147,185.9794,196.7939,0,U,49809,999,2822,0,-.94E-6,0
GSAT0224 (GALILEO 28),2021-116B,2026-06-17T23:38:32.037792,1.70475877,.0001177,57.1613,341.6514,159.9709,202.1698,0,U,49810,999,2822,0,-.91E-6,0
COSMOS 2557 (706K),2022-075A,2026-06-19T22:11:17.280384,2.13102003,.00102657,64.2972,314.3888,274.4037,85.4711,0,U,52984,999,3077,0,-.62E-6,0
COSMOS 2559 (707K),2022-130A,2026-06-18T08:04:20.621856,2.13101593,.0012585,64.2705,314.5280,178.2040,181.7898,0,U,54031,999,2871,0,-.58E-6,0
COSMOS 2564 (761),2022-161A,2026-06-19T02:50:06.363744,2.13102019,.00122098,64.7419,192.6477,224.8442,135.1033,0,U,54377,999,2767,0,.56E-6,0
GPS BIII-6  (PRN 28),2023-009A,2026-06-18T22:44:02.602176,2.00571367,.00062094,55.1230,148.4494,317.1240,40.4991,0,U,55268,999,2527,0,.54E-6,0
BEIDOU-3 G4 (C62),2023-066A,2026-06-19T22:05:46.477248,1.00272967,.00044328,0.4832,332.2987,179.0946,228.2350,0,U,56564,999,1142,0,-.286E-5,0
NVS-01 (IRNSS-1J),2023-076A,2026-06-19T20:20:05.139744,1.00278043,.00030699,2.1588,244.2184,18.4437,79.8506,0,U,56759,999,1114,0,-.341E-5,0
COSMOS 2569 (703K),2023-114A,2026-06-19T03:07:52.821408,2.13103706,.00105954,65.3032,72.5549,296.9432,62.9877,0,U,57517,999,2230,0,-.29E-6,0
BEIDOU-3 M28 (C50),2023-207A,2026-06-19T10:43:50.852640,1.86229660,.00032245,55.7547,62.2267,348.4750,11.5587,0,U,58654,999,1688,0,-.66E-6,0
