BEIDOU-2 G8             
1 44231U 19027A   26170.92163015 -.00000253  00000+0  00000+0 0  9995
2 44231   1.6661  74.5058 0010139 282.0922  27.8583  1.00269962 26101
COSMOS 2534 [GLONASS-M] 
1 44299U 19030A   26170.58782523  .00000058  00000+0  00000+0 0  9998
2 44299  64.3684 192.5358 0013483 275.0708 265.7361  2.13102291 54978
BEIDOU-3 IGSO-2         
1 44337U 19035A   26169.88675894 -.00000097  00000+0  00000+0 0  9993
2 44337  55.2463 158.8478 0039664 216.5160 330.6306  1.00265889 25689
NAVSTAR 78 (USA 293)    
1 44506U 19056A   26170.88008800 -.00000092  00000+0  00000+0 0  9998
2 44506  55.6357 331.0347 0062144 197.6254 334.2547  2.00569711 50121
BEIDOU-3 M24            
1 44542U 19061A   26169.85330200  .00000056  00000+0  00000+0 0  9990
2 44542  54.3963 182.6715 0008348 358.6027   1.4189  1.86229057 45827
BEIDOU-3 M23            
1 44543U 19061B   26170.78491900  .00000062  00000+0  00000+0 0  9997
2 44543  54.3947 182.6082 0005753 337.7504 198.4521  1.86227424 45847
EUTELSAT 5 WEST B       
1 44624U 19067A   26170.85322422 -.00000048  00000+0  00000+0 0  9998
2 44624   0.0624 351.1019 0003082  97.4901 121.6554  1.00270055 24467
BEIDOU-3 M22            
1 44793U 19078A   26170.76709439 -.00000086  00000+0  00000+0 0  9996
2 44793  53.9333 299.7372 0006294  50.9826 309.0706  1.86227050 44694
BEIDOU-3 M21            
1 44794U 19078B   26169.29611751 -.00000076  00000+0  00000+0 0  9991
2 44794  53.9076 299.7502 0004064  49.2520 310.7784  1.86227678 44678
COSMOS 2544 [GLONASS-M] 
1 44850U 19088A   26169.43716075 -.00000023  00000+0  00000+0 0  9998
2 44850  65.5663  73.6893 0013127 258.8621 101.0278  2.13102753 50745
BEIDOU-3 M19            
1 44864U 19090A   26170.32723203 -.00000063  00000+0  00000+0 0  9991
2 44864  56.5606  62.7196 0017807 298.1010 230.5750  1.86231227 44272
BEIDOU-3 M20            
1 44865U 19090B   26169.67527745 -.00000058  00000+0  00000+0 0  9995
2 44865  56.5620  62.7761 0015615 312.2190 228.9431  1.86231125 44240
BEIDOU-3 G2             
1 45344U 20017A   26170.91564168 -.00000147  00000+0  00000+0 0  9997
2 45344   2.8704  47.4085 0002071  33.6369 236.7997  1.00271664 23286
COSMOS 2545 [GLONASS-M] 
1 45358U 20018A   26167.28584185 -.00000055  00000+0  00000+0 0  9998
2 45358  64.3556 312.4510 0008397 230.0424 129.8687  2.13102431 48644
BEIDOU-3 G3             
1 45807U 20040A   26170.91487012 -.00000359  00000+0  00000+0 0  9994
2 45807   2.4549  67.4595 0002371 337.2496 303.2164  1.00264999 22095
NAVSTAR 79 (USA 304)    
1 45854U 20041A   26170.72346014 -.00000092  00000+0  00000+0 0  9996
2 45854  56.6713  28.8441 0064001 204.6185 152.4669  2.00558579 44080
GALAXY 30 (G-30)        
1 46114U 20056C   26170.72562682  .00000031  00000+0  00000+0 0  9995
2 46114   0.0178  13.9580 0002253  74.1097 316.0992  1.00272867 21310
COSMOS 2547 [GLONASS-K] 
1 46805U 20075A   26170.29095409  .00000057  00000+0  00000+0 0  9991
2 46805  64.5997 192.4053 0009333 239.7748 120.1782  2.13100021 43959
NAVSTAR 80 (USA 309)    
1 46826U 20078A   26170.81826867  .00000026  00000+0  00000+0 0  9991
2 46826  53.9793 210.6716 0073614 207.3321 194.6369  2.00564906 41562
NAVSTAR 81 (USA 319)    
1 48859U 21054A   26167.95784770 -.00000087  00000+0  00000+0 0  9999
2 48859  55.1744 332.4683 0025342 228.5531  94.2622  2.00568788 36742
QZS-1R (MICHIBIKI-1R)   
1 49336U 21096A   26170.63258758 -.00000290  00000+0  00000+0 0  9993
2 49336  37.4674  79.5460 0754800 271.8525 278.0167  1.00254705 17039
GSAT0223 (GALILEO 27)   
1 49809U 21116A   26170.37539307 -.00000094  00000+0  00000+0 0  9996
2 49809  57.1602 341.6147 0001549 185.9794 196.7939  1.70475883 28222
GSAT0224 (GALILEO 28)   
1 49810U 21116B   26168.98509303 -.00000091  00000+0  00000+0 0  9992
2 49810  57.1613 341.6514 0001177 159.9709 202.1698  1.70475877 28225
COSMOS 2557 [GLONASS-K] 
1 52984U 22075A   26170.92450556 -.00000062  00000+0  00000+0 0  9993
2 52984  64.2972 314.3888 0010265 274.4037  85.4711  2.13102003 30771
COSMOS 2559 [GLONASS-K] 
1 54031U 22130A   26169.33634979 -.00000058  00000+0  00000+0 0  9991
2 54031  64.2705 314.5280 0012585 178.2040 181.7898  2.13101593 28710
COSMOS 2564 [GLONASS-M] 
1 54377U 22161A   26170.11812921  .00000056  00000+0  00000+0 0  9998
2 54377  64.7419 192.6477 0012209 224.8442 135.1033  2.13102019 27672
NAVSTAR 82 (USA 343)    
1 55268U 23009A   26169.94725234  .00000054  00000+0  00000+0 0  9997
2 55268  55.1230 148.4494 0006209 317.1240  40.4991  2.00571367 25277
BEIDOU-3 G4             
1 56564U 23066A   26170.92067682 -.00000286  00000+0  00000+0 0  9994
2 56564   0.4832 332.2987 0004432 179.0946 228.2350  1.00272967 11422
NVS-01 (IRNSS-1J)       
1 56759U 23076A   26170.84728171 -.00000341  00000+0  00000+0 0  9991
2 56759   2.1588 244.2184 0003069  18.4437  79.8506  1.00278043 11145
COSMOS 2569 [GLONASS-K2]
1 57517U 23114A   26170.13047247 -.00000029  00000+0  00000+0 0  9990
2 57517  65.3032  72.5549 0010595 296.9432  62.9877  2.13103706 22302
BEIDOU-3 M28            
1 58654U 23207A   26170.44711635 -.00000066  00000+0  00000+0 0  9990
2 58654  55.7547  62.2267 0003224 348.4750  11.5587  1.86229660 16880
